{"type": "FeatureCollection", "features": [ {"type": "Feature", "properties": {"norad_id": 66807, "name": "STARLINK-36000", "group": "last-30-days", "lat": 8.865079124578141, "lon": 26.78886446804294, "alt_km": 356.00258941154607, "timestamp": "2025-12-18T13:51:48.379871+00:00", "meta": {"OBJECT_NAME": "STARLINK-36000", "OBJECT_ID": "2025-278S", "EPOCH": "2025-12-18T06:00:02.999808", "MEAN_MOTION": 15.7202163, "ECCENTRICITY": 0.00016061, "INCLINATION": 42.9994, "RA_OF_ASC_NODE": 218.4017, "ARG_OF_PERICENTER": 273.4441, "MEAN_ANOMALY": 197.9742, "EPHEMERIS_TYPE": 0, "CLASSIFICATION_TYPE": "U", "NORAD_CAT_ID": 66807, "ELEMENT_SET_NO": 999, "REV_AT_EPOCH": 390, "BSTAR": -0.016357985, "MEAN_MOTION_DOT": -0.0195333, "MEAN_MOTION_DDOT": 0}, "tle": {"line1": "1 66807U 25278S   25352.25003472 -.01953330  00000+0 -16358-1 0  9990", "line2": "2 66807  42.9994 218.4017 0001606 273.4441 197.9742 15.72021630  3905"}}, "geometry": {"type": "Point", "coordinates": [26.78886446804294, 8.865079124578141]}}, {"type": "Feature", "properties": {"norad_id": 66808, "name": "STARLINK-36071", "group": "last-30-days", "lat": 7.573378024721935, "lon": 28.216599458507037, "alt_km": 356.174099217842, "timestamp": "2025-12-18T13:51:48.379881+00:00", "meta": {"OBJECT_NAME": "STARLINK-36071", "OBJECT_ID": "2025-278T", "EPOCH": "2025-12-18T06:00:02.999808", "MEAN_MOTION": 15.72021614, "ECCENTRICITY": 0.0001646, "INCLINATION": 42.9993, "RA_OF_ASC_NODE": 218.3969, "ARG_OF_PERICENTER": 273.9253, "MEAN_ANOMALY": 199.4118, "EPHEMERIS_TYPE": 0, "CLASSIFICATION_TYPE": "U", "NORAD_CAT_ID": 66808, "ELEMENT_SET_NO": 999, "REV_AT_EPOCH": 384, "BSTAR": -0.016378247, "MEAN_MOTION_DOT": -0.01955501, "MEAN_MOTION_DDOT": 0}, "tle": {"line1": "1 66808U 25278T   25352.25003472 -.01955501  00000+0 -16378-1 0  9995", "line2": "2 66808  42.9993 218.3969 0001646 273.9253 199.4118 15.72021614  3849"}}, "geometry": {"type": "Point", "coordinates": [28.216599458507037, 7.573378024721935]}}, {"type": "Feature", "properties": {"norad_id": 66809, "name": "STARLINK-35979", "group": "last-30-days", "lat": 3.6727595759070364, "lon": 32.45481423500395, "alt_km": 356.61488699089114, "timestamp": "2025-12-18T13:51:48.379891+00:00", "meta": {"OBJECT_NAME": "STARLINK-35979", "OBJECT_ID": "2025-278U", "EPOCH": "2025-12-18T06:00:02.999808", "MEAN_MOTION": 15.72020767, "ECCENTRICITY": 0.00014621, "INCLINATION": 42.9995, "RA_OF_ASC_NODE": 218.3819, "ARG_OF_PERICENTER": 275.8494, "MEAN_ANOMALY": 203.2402, "EPHEMERIS_TYPE": 0, "CLASSIFICATION_TYPE": "U", "NORAD_CAT_ID": 66809, "ELEMENT_SET_NO": 999, "REV_AT_EPOCH": 384, "BSTAR": -0.016373838, "MEAN_MOTION_DOT": -0.01954824, "MEAN_MOTION_DDOT": 0}, "tle": {"line1": "1 66809U 25278U   25352.25003472 -.01954824  00000+0 -16374-1 0  9999", "line2": "2 66809  42.9995 218.3819 0001462 275.8494 203.2402 15.72020767  3848"}}, "geometry": {"type": "Point", "coordinates": [32.45481423500395, 3.6727595759070364]}}, {"type": "Feature", "properties": {"norad_id": 66810, "name": "STARLINK-36046", "group": "last-30-days", "lat": 6.277227034059018, "lon": 29.635939738606982, "alt_km": 356.3255214785904, "timestamp": "2025-12-18T13:51:48.379901+00:00", "meta": {"OBJECT_NAME": "STARLINK-36046", "OBJECT_ID": "2025-278V", "EPOCH": "2025-12-18T06:00:02.999808", "MEAN_MOTION": 15.72022362, "ECCENTRICITY": 0.00015705, "INCLINATION": 42.9992, "RA_OF_ASC_NODE": 218.3925, "ARG_OF_PERICENTER": 275.0719, "MEAN_ANOMALY": 200.1799, "EPHEMERIS_TYPE": 0, "CLASSIFICATION_TYPE": "U", "NORAD_CAT_ID": 66810, "ELEMENT_SET_NO": 999, "REV_AT_EPOCH": 361, "BSTAR": -0.016366097, "MEAN_MOTION_DOT": -0.01954212, "MEAN_MOTION_DDOT": 0}, "tle": {"line1": "1 66810U 25278V   25352.25003472 -.01954212  00000+0 -16366-1 0  9993", "line2": "2 66810  42.9992 218.3925 0001570 275.0719 200.1799 15.72022362  3610"}}, "geometry": {"type": "Point", "coordinates": [29.635939738606982, 6.277227034059018]}}, {"type": "Feature", "properties": {"norad_id": 66811, "name": "STARLINK-36045", "group": "last-30-days", "lat": 4.977481304045246, "lon": 31.0470123184005, "alt_km": 356.49040544676427, "timestamp": "2025-12-18T13:51:48.379911+00:00", "meta": {"OBJECT_NAME": "STARLINK-36045", "OBJECT_ID": "2025-278W", "EPOCH": "2025-12-18T06:00:02.999808", "MEAN_MOTION": 15.72027333, "ECCENTRICITY": 0.0001605, "INCLINATION": 42.9989, "RA_OF_ASC_NODE": 218.3872, "ARG_OF_PERICENTER": 275.7551, "MEAN_ANOMALY": 201.4109, "EPHEMERIS_TYPE": 0, "CLASSIFICATION_TYPE": "U", "NORAD_CAT_ID": 66811, "ELEMENT_SET_NO": 999, "REV_AT_EPOCH": 384, "BSTAR": -0.016419831, "MEAN_MOTION_DOT": -0.01960283, "MEAN_MOTION_DDOT": 0}, "tle": {"line1": "1 66811U 25278W   25352.25003472 -.01960283  00000+0 -16420-1 0  9990", "line2": "2 66811  42.9989 218.3872 0001605 275.7551 201.4109 15.72027333  3845"}}, "geometry": {"type": "Point", "coordinates": [31.0470123184005, 4.977481304045246]}}, {"type": "Feature", "properties": {"norad_id": 66812, "name": "STARLINK-36054", "group": "last-30-days", "lat": 2.3685335028512586, "lon": 33.85584608581436, "alt_km": 356.7845006851403, "timestamp": "2025-12-18T13:51:48.379921+00:00", "meta": {"OBJECT_NAME": "STARLINK-36054", "OBJECT_ID": "2025-278X", "EPOCH": "2025-12-18T06:00:02.999808", "MEAN_MOTION": 15.72027884, "ECCENTRICITY": 0.00015455, "INCLINATION": 42.999, "RA_OF_ASC_NODE": 218.3771, "ARG_OF_PERICENTER": 276.8564, "MEAN_ANOMALY": 204.1447, "EPHEMERIS_TYPE": 0, "CLASSIFICATION_TYPE": "U", "NORAD_CAT_ID": 66812, "ELEMENT_SET_NO": 999, "REV_AT_EPOCH": 384, "BSTAR": -0.016432367, "MEAN_MOTION_DOT": -0.01961598, "MEAN_MOTION_DDOT": 0}, "tle": {"line1": "1 66812U 25278X   25352.25003472 -.01961598  00000+0 -16432-1 0  9994", "line2": "2 66812  42.9990 218.3771 0001545 276.8564 204.1447 15.72027884  3841"}}, "geometry": {"type": "Point", "coordinates": [33.85584608581436, 2.3685335028512586]}}, {"type": "Feature", "properties": {"norad_id": 66813, "name": "STARLINK-36042", "group": "last-30-days", "lat": -0.237149089515266, "lon": 36.64441943916273, "alt_km": 350.7431312374356, "timestamp": "2025-12-18T13:51:48.379934+00:00", "meta": {"OBJECT_NAME": "STARLINK-36042", "OBJECT_ID": "2025-278Y", "EPOCH": "2025-12-18T06:00:02.999808", "MEAN_MOTION": 15.72721168, "ECCENTRICITY": 0.00012433, "INCLINATION": 42.9984, "RA_OF_ASC_NODE": 218.3714, "ARG_OF_PERICENTER": 284.0065, "MEAN_ANOMALY": 199.064, "EPHEMERIS_TYPE": 0, "CLASSIFICATION_TYPE": "U", "NORAD_CAT_ID": 66813, "ELEMENT_SET_NO": 999, "REV_AT_EPOCH": 384, "BSTAR": 0.0015824962, "MEAN_MOTION_DOT": 0.0022548, "MEAN_MOTION_DDOT": 0}, "tle": {"line1": "1 66813U 25278Y   25352.25003472  .00225480  00000+0  15825-2 0  9991", "line2": "2 66813  42.9984 218.3714 0001243 284.0065 199.0640 15.72721168  3847"}}, "geometry": {"type": "Point", "coordinates": [36.64441943916273, -0.237149089515266]}}, {"type": "Feature", "properties": {"norad_id": 66814, "name": "STARLINK-35984", "group": "last-30-days", "lat": -6.759143104083494, "lon": 43.67272991498481, "alt_km": 357.5693068539649, "timestamp": "2025-12-18T13:51:48.379944+00:00", "meta": {"OBJECT_NAME": "STARLINK-35984", "OBJECT_ID": "2025-278Z", "EPOCH": "2025-12-18T06:00:02.999808", "MEAN_MOTION": 15.72025217, "ECCENTRICITY": 0.0001611, "INCLINATION": 42.9992, "RA_OF_ASC_NODE": 218.3424, "ARG_OF_PERICENTER": 273.9076, "MEAN_ANOMALY": 220.5132, "EPHEMERIS_TYPE": 0, "CLASSIFICATION_TYPE": "U", "NORAD_CAT_ID": 66814, "ELEMENT_SET_NO": 999, "REV_AT_EPOCH": 393, "BSTAR": -0.016403069, "MEAN_MOTION_DOT": -0.01958361, "MEAN_MOTION_DDOT": 0}, "tle": {"line1": "1 66814U 25278Z   25352.25003472 -.01958361  00000+0 -16403-1 0  9998", "line2": "2 66814  42.9992 218.3424 0001611 273.9076 220.5132 15.72025217  3931"}}, "geometry": {"type": "Point", "coordinates": [43.67272991498481, -6.759143104083494]}}, {"type": "Feature", "properties": {"norad_id": 66815, "name": "STARLINK-35985", "group": "last-30-days", "lat": -5.46287117000311, "lon": 42.26037581252187, "alt_km": 357.5030252407123, "timestamp": "2025-12-18T13:51:48.379954+00:00", "meta": {"OBJECT_NAME": "STARLINK-35985", "OBJECT_ID": "2025-278AA", "EPOCH": "2025-12-18T06:00:02.999808", "MEAN_MOTION": 15.72022932, "ECCENTRICITY": 0.00015752, "INCLINATION": 42.9992, "RA_OF_ASC_NODE": 218.3466, "ARG_OF_PERICENTER": 275.2499, "MEAN_ANOMALY": 217.2593, "EPHEMERIS_TYPE": 0, "CLASSIFICATION_TYPE": "U", "NORAD_CAT_ID": 66815, "ELEMENT_SET_NO": 999, "REV_AT_EPOCH": 393, "BSTAR": -0.016414709, "MEAN_MOTION_DOT": -0.0195939, "MEAN_MOTION_DDOT": 0}, "tle": {"line1": "1 66815U 25278AA  25352.25003472 -.01959390  00000+0 -16415-1 0  9995", "line2": "2 66815  42.9992 218.3466 0001575 275.2499 217.2593 15.72022932  3936"}}, "geometry": {"type": "Point", "coordinates": [42.26037581252187, -5.46287117000311]}}, {"type": "Feature", "properties": {"norad_id": 66816, "name": "STARLINK-36098", "group": "last-30-days", "lat": -0.24276170923391693, "lon": 36.650653574068784, "alt_km": 357.01418623592144, "timestamp": "2025-12-18T13:51:48.379969+00:00", "meta": {"OBJECT_NAME": "STARLINK-36098", "OBJECT_ID": "2025-278AB", "EPOCH": "2025-12-18T06:00:02.999808", "MEAN_MOTION": 15.72020878, "ECCENTRICITY": 0.00016135, "INCLINATION": 42.9991, "RA_OF_ASC_NODE": 218.3672, "ARG_OF_PERICENTER": 275.2205, "MEAN_ANOMALY": 209.6165, "EPHEMERIS_TYPE": 0, "CLASSIFICATION_TYPE": "U", "NORAD_CAT_ID": 66816, "ELEMENT_SET_NO": 999, "REV_AT_EPOCH": 368, "BSTAR": -0.016345904, "MEAN_MOTION_DOT": -0.01952004, "MEAN_MOTION_DDOT": 0}, "tle": {"line1": "1 66816U 25278AB  25352.25003472 -.01952004  00000+0 -16346-1 0  9994", "line2": "2 66816  42.9991 218.3672 0001613 275.2205 209.6165 15.72020878  3682"}}, "geometry": {"type": "Point", "coordinates": [36.650653574068784, -0.24276170923391693]}}]}